[{"OBJECT_NAME":"STARLINK-1609","OBJECT_ID":"2021-012B","EPOCH":"2026-03-09T23:09:01.681920","MEAN_MOTION":15.30181084,"ECCENTRICITY":0.00015265,"INCLINATION":53.1612,"RA_OF_ASC_NODE":63.6722,"ARG_OF_PERICENTER":85.4135,"MEAN_ANOMALY":274.704,"EPHEMERIS_TYPE":0,"CLASSIFICATION_TYPE":"U","NORAD_CAT_ID":47621,"ELEMENT_SET_NO":999,"REV_AT_EPOCH":28013,"BSTAR":-4.002694e-5,"MEAN_MOTION_DOT":-1.544e-5,"MEAN_MOTION_DDOT":0},{"OBJECT_NAME":"HAWK-11C","OBJECT_ID":"2024-247E","EPOCH":"2026-03-09T12:17:35.407968","MEAN_MOTION":15.2884802,"ECCENTRICITY":0.00059001,"INCLINATION":45.0045,"RA_OF_ASC_NODE":114.8762,"ARG_OF_PERICENTER":329.704,"MEAN_ANOMALY":30.3502,"EPHEMERIS_TYPE":0,"CLASSIFICATION_TYPE":"U","NORAD_CAT_ID":62381,"ELEMENT_SET_NO":999,"REV_AT_EPOCH":6774,"BSTAR":0.00033290115,"MEAN_MOTION_DOT":9.223e-5,"MEAN_MOTION_DDOT":0}]
